FLOCK 4G-5              
1 62663U 25009BG  26068.45638436  .00011278  00000+0  40688-3 0  9997
2 62663  97.4058 151.2478 0002094 314.5072  45.5996 15.28679529 63699
STARLINK-36114          
1 66870U 25281Y   26068.16680333  .00028498  00000+0  10411-2 0  9996
2 66870  43.0035 346.5907 0001738 277.5261  82.5393 15.27579451 16099
